STARLINK-2658
1 18473C 21040AX  21326.18060448  .00002763  00000-0  18510-3 0  3268
2 18473  53.0554  32.9404 0001259  60.4346  79.3143 15.06407050    18
